{"fetched_at":"2026-07-08T07:03:59.482Z","source":"https://celestrak.org/NORAD/elements/gp.php?NAME=ICEYE&FORMAT=JSON","constellation":"iceye","records":[{"OBJECT_NAME":"ICEYE-X40","OBJECT_ID":"2024-149CK","EPOCH":"2026-07-07T17:49:39.934848","CLASSIFICATION_TYPE":"U","MEAN_MOTION":14.98034573,"ECCENTRICITY":0.0004819,"INCLINATION":97.6795,"RA_OF_ASC_NODE":264.907,"ARG_OF_PERICENTER":24.0347,"MEAN_ANOMALY":336.11,"EPHEMERIS_TYPE":0,"NORAD_CAT_ID":60549,"ELEMENT_SET_NO":999,"REV_AT_EPOCH":10315,"BSTAR":0.00011901,"MEAN_MOTION_DOT":0.00001348,"MEAN_MOTION_DDOT":0},{"OBJECT_NAME":"ICEYE-X49","OBJECT_ID":"2024-247H","EPOCH":"2026-07-07T05:40:34.060512","CLASSIFICATION_TYPE":"U","MEAN_MOTION":15.13579428,"ECCENTRICITY":0.00011851,"INCLINATION":44.9985,"RA_OF_ASC_NODE":250.3138,"ARG_OF_PERICENTER":237.58,"MEAN_ANOMALY":122.4963,"EPHEMERIS_TYPE":0,"NORAD_CAT_ID":62384,"ELEMENT_SET_NO":999,"REV_AT_EPOCH":8521,"BSTAR":0.00018212459,"MEAN_MOTION_DOT":0.00003067,"MEAN_MOTION_DDOT":0},{"OBJECT_NAME":"ICEYE-X47","OBJECT_ID":"2024-247N","EPOCH":"2026-07-07T11:25:13.497024","CLASSIFICATION_TYPE":"U","MEAN_MOTION":15.13464344,"ECCENTRICITY":0.00021124,"INCLINATION":44.9954,"RA_OF_ASC_NODE":248.6236,"ARG_OF_PERICENTER":317.5108,"MEAN_ANOMALY":42.5606,"EPHEMERIS_TYPE":0,"NORAD_CAT_ID":62389,"ELEMENT_SET_NO":999,"REV_AT_EPOCH":8525,"BSTAR":0.00013005069,"MEAN_MOTION_DOT":0.00002108,"MEAN_MOTION_DDOT":0},{"OBJECT_NAME":"ICEYE-X42","OBJECT_ID":"2025-009CT","EPOCH":"2026-07-07T15:56:14.612064","CLASSIFICATION_TYPE":"U","MEAN_MOTION":14.91853165,"ECCENTRICITY":0.0001284,"INCLINATION":97.7388,"RA_OF_ASC_NODE":266.6104,"ARG_OF_PERICENTER":92.2652,"MEAN_ANOMALY":267.8713,"EPHEMERIS_TYPE":0,"NORAD_CAT_ID":62698,"ELEMENT_SET_NO":999,"REV_AT_EPOCH":8034,"BSTAR":0.00011496,"MEAN_MOTION_DOT":0.00001105,"MEAN_MOTION_DDOT":0},{"OBJECT_NAME":"ICEYE-X41","OBJECT_ID":"2025-009CV","EPOCH":"2026-07-07T17:26:39.000192","CLASSIFICATION_TYPE":"U","MEAN_MOTION":14.96890405,"ECCENTRICITY":0.0001011,"INCLINATION":97.7067,"RA_OF_ASC_NODE":267.9554,"ARG_OF_PERICENTER":18.761,"MEAN_ANOMALY":341.3649,"EPHEMERIS_TYPE":0,"NORAD_CAT_ID":62700,"ELEMENT_SET_NO":999,"REV_AT_EPOCH":8048,"BSTAR":0.00012981,"MEAN_MOTION_DOT":0.00001432,"MEAN_MOTION_DDOT":0},{"OBJECT_NAME":"ICEYE-X45","OBJECT_ID":"2025-009DA","EPOCH":"2026-07-07T19:08:19.464000","CLASSIFICATION_TYPE":"U","MEAN_MOTION":15.00830964,"ECCENTRICITY":0.0000934,"INCLINATION":97.8379,"RA_OF_ASC_NODE":275.6505,"ARG_OF_PERICENTER":71.5068,"MEAN_ANOMALY":288.6256,"EPHEMERIS_TYPE":0,"NORAD_CAT_ID":62705,"ELEMENT_SET_NO":999,"REV_AT_EPOCH":8077,"BSTAR":0.000042625,"MEAN_MOTION_DOT":0.0000048,"MEAN_MOTION_DDOT":0},{"OBJECT_NAME":"ICEYE-X44","OBJECT_ID":"2025-009DC","EPOCH":"2026-07-07T18:03:16.304256","CLASSIFICATION_TYPE":"U","MEAN_MOTION":14.96136409,"ECCENTRICITY":0.0002469,"INCLINATION":97.7046,"RA_OF_ASC_NODE":267.5537,"ARG_OF_PERICENTER":84.736,"MEAN_ANOMALY":275.4143,"EPHEMERIS_TYPE":0,"NORAD_CAT_ID":62707,"ELEMENT_SET_NO":999,"REV_AT_EPOCH":10301,"BSTAR":0.00019668,"MEAN_MOTION_DOT":0.00002156,"MEAN_MOTION_DDOT":0},{"OBJECT_NAME":"ICEYE-X48","OBJECT_ID":"2025-052AV","EPOCH":"2026-07-07T16:42:38.109024","CLASSIFICATION_TYPE":"U","MEAN_MOTION":14.98099107,"ECCENTRICITY":0.0003119,"INCLINATION":97.6841,"RA_OF_ASC_NODE":80.5695,"ARG_OF_PERICENTER":121.9484,"MEAN_ANOMALY":238.2042,"EPHEMERIS_TYPE":0,"NORAD_CAT_ID":63253,"ELEMENT_SET_NO":999,"REV_AT_EPOCH":7174,"BSTAR":0.00016718,"MEAN_MOTION_DOT":0.00001921,"MEAN_MOTION_DDOT":0},{"OBJECT_NAME":"ICEYE-X50","OBJECT_ID":"2025-052AX","EPOCH":"2026-07-07T21:39:07.444800","CLASSIFICATION_TYPE":"U","MEAN_MOTION":14.95346452,"ECCENTRICITY":0.0003115,"INCLINATION":97.6867,"RA_OF_ASC_NODE":80.3978,"ARG_OF_PERICENTER":117.1422,"MEAN_ANOMALY":243.0117,"EPHEMERIS_TYPE":0,"NORAD_CAT_ID":63255,"ELEMENT_SET_NO":999,"REV_AT_EPOCH":7174,"BSTAR":0.00014708,"MEAN_MOTION_DOT":0.00001566,"MEAN_MOTION_DDOT":0},{"OBJECT_NAME":"ICEYE-X51","OBJECT_ID":"2025-052AZ","EPOCH":"2026-07-07T17:24:20.030976","CLASSIFICATION_TYPE":"U","MEAN_MOTION":15.00869857,"ECCENTRICITY":0.000198,"INCLINATION":97.7599,"RA_OF_ASC_NODE":83.7819,"ARG_OF_PERICENTER":69.7985,"MEAN_ANOMALY":290.3451,"EPHEMERIS_TYPE":0,"NORAD_CAT_ID":63257,"ELEMENT_SET_NO":999,"REV_AT_EPOCH":7188,"BSTAR":0.00023211,"MEAN_MOTION_DOT":0.00002892,"MEAN_MOTION_DDOT":0},{"OBJECT_NAME":"ICEYE-X46","OBJECT_ID":"2025-052BA","EPOCH":"2026-07-06T16:39:57.403296","CLASSIFICATION_TYPE":"U","MEAN_MOTION":14.95342721,"ECCENTRICITY":0.00014869,"INCLINATION":97.6861,"RA_OF_ASC_NODE":79.2121,"ARG_OF_PERICENTER":84.3155,"MEAN_ANOMALY":275.8236,"EPHEMERIS_TYPE":0,"NORAD_CAT_ID":63258,"ELEMENT_SET_NO":999,"REV_AT_EPOCH":7156,"BSTAR":0.00016103178,"MEAN_MOTION_DOT":0.00001719,"MEAN_MOTION_DDOT":0},{"OBJECT_NAME":"ICEYE-X54","OBJECT_ID":"2025-135AU","EPOCH":"2026-07-07T20:17:23.470656","CLASSIFICATION_TYPE":"U","MEAN_MOTION":14.94704065,"ECCENTRICITY":0.0001548,"INCLINATION":97.7733,"RA_OF_ASC_NODE":303.0699,"ARG_OF_PERICENTER":213.1277,"MEAN_ANOMALY":146.9846,"EPHEMERIS_TYPE":0,"NORAD_CAT_ID":64570,"ELEMENT_SET_NO":999,"REV_AT_EPOCH":5698,"BSTAR":0.00018386,"MEAN_MOTION_DOT":0.00001938,"MEAN_MOTION_DDOT":0},{"OBJECT_NAME":"ICEYE-X52","OBJECT_ID":"2025-135AW","EPOCH":"2026-07-07T20:06:41.877216","CLASSIFICATION_TYPE":"U","MEAN_MOTION":14.93634194,"ECCENTRICITY":0.0000645,"INCLINATION":97.7763,"RA_OF_ASC_NODE":302.8617,"ARG_OF_PERICENTER":229.9794,"MEAN_ANOMALY":130.1369,"EPHEMERIS_TYPE":0,"NORAD_CAT_ID":64572,"ELEMENT_SET_NO":999,"REV_AT_EPOCH":5696,"BSTAR":0.00012511,"MEAN_MOTION_DOT":0.00001265,"MEAN_MOTION_DDOT":0},{"OBJECT_NAME":"ICEYE-X56","OBJECT_ID":"2025-135AY","EPOCH":"2026-07-07T20:06:33.684768","CLASSIFICATION_TYPE":"U","MEAN_MOTION":14.95733936,"ECCENTRICITY":0.0000898,"INCLINATION":97.7756,"RA_OF_ASC_NODE":303.637,"ARG_OF_PERICENTER":243.4533,"MEAN_ANOMALY":116.6596,"EPHEMERIS_TYPE":0,"NORAD_CAT_ID":64574,"ELEMENT_SET_NO":999,"REV_AT_EPOCH":5701,"BSTAR":0.00018055,"MEAN_MOTION_DOT":0.00001953,"MEAN_MOTION_DDOT":0},{"OBJECT_NAME":"ICEYE-X57","OBJECT_ID":"2025-135BC","EPOCH":"2026-07-07T20:49:20.562240","CLASSIFICATION_TYPE":"U","MEAN_MOTION":15.00866302,"ECCENTRICITY":0.0002033,"INCLINATION":97.7999,"RA_OF_ASC_NODE":305.3961,"ARG_OF_PERICENTER":62.1916,"MEAN_ANOMALY":297.9513,"EPHEMERIS_TYPE":0,"NORAD_CAT_ID":64578,"ELEMENT_SET_NO":999,"REV_AT_EPOCH":5712,"BSTAR":0.00026683,"MEAN_MOTION_DOT":0.00003333,"MEAN_MOTION_DDOT":0},{"OBJECT_NAME":"ICEYE-X55","OBJECT_ID":"2025-135BF","EPOCH":"2026-07-07T20:14:28.324032","CLASSIFICATION_TYPE":"U","MEAN_MOTION":14.95332085,"ECCENTRICITY":0.000191,"INCLINATION":97.7752,"RA_OF_ASC_NODE":303.4726,"ARG_OF_PERICENTER":277.1541,"MEAN_ANOMALY":82.9462,"EPHEMERIS_TYPE":0,"NORAD_CAT_ID":64581,"ELEMENT_SET_NO":999,"REV_AT_EPOCH":5700,"BSTAR":0.0001855,"MEAN_MOTION_DOT":0.00001988,"MEAN_MOTION_DDOT":0}]}
